{
"type": "FeatureCollection",
"name": "railway_station5",
"crs": { "type": "name", "properties": { "name": "urn:ogc:def:crs:OGC:1.3:CRS84" } },
"xy_coordinate_resolution": 1e-15,
"features": [
{ "type": "Feature", "properties": { "osm_id": "5847983789", "code": 5601, "fclass": "railway_station", "name": "Maradana" }, "geometry": { "type": "Point", "coordinates": [ 79.865796, 6.9292373 ] } },
{ "type": "Feature", "properties": { "osm_id": "6541919413", "code": 5601, "fclass": "railway_station", "name": "Kompannavidiya" }, "geometry": { "type": "Point", "coordinates": [ 79.8496524, 6.9230404 ] } },
{ "type": "Feature", "properties": { "osm_id": "4762471168", "code": 5601, "fclass": "railway_station", "name": "Bambalapitiya" }, "geometry": { "type": "Point", "coordinates": [ 79.8529609, 6.8939771 ] } },
{ "type": "Feature", "properties": { "osm_id": "619234325", "code": 5601, "fclass": "railway_station", "name": "Dematagoda" }, "geometry": { "type": "Point", "coordinates": [ 79.8790153, 6.937547 ] } },
{ "type": "Feature", "properties": { "osm_id": "2648621439", "code": 5601, "fclass": "railway_station", "name": "Kelaniya" }, "geometry": { "type": "Point", "coordinates": [ 79.8944725, 6.9610592 ] } },
{ "type": "Feature", "properties": { "osm_id": "13447631673", "code": 5601, "fclass": "railway_station", "name": "Colombo Fort" }, "geometry": { "type": "Point", "coordinates": [ 79.8503417, 6.9333986 ] } },
{ "type": "Feature", "properties": { "osm_id": "92132195", "code": 5601, "fclass": "railway_station", "name": "Secretariat Halt" }, "geometry": { "type": "Point", "coordinates": [ 79.8460198, 6.9314456 ] } },
{ "type": "Feature", "properties": { "osm_id": "7571568170", "code": 5601, "fclass": "railway_station", "name": "Bambalapitiya" }, "geometry": { "type": "Point", "coordinates": [ 79.8529894, 6.893674 ] } },
{ "type": "Feature", "properties": { "osm_id": "7571568171", "code": 5601, "fclass": "railway_station", "name": "Kollupitiya" }, "geometry": { "type": "Point", "coordinates": [ 79.8481929, 6.9113228 ] } },
{ "type": "Feature", "properties": { "osm_id": "1128194191", "code": 5601, "fclass": "railway_station", "name": "Baseline Road" }, "geometry": { "type": "Point", "coordinates": [ 79.8785882, 6.926363 ] } },
{ "type": "Feature", "properties": { "osm_id": "1128190754", "code": 5601, "fclass": "railway_station", "name": "Narahenpita" }, "geometry": { "type": "Point", "coordinates": [ 79.8780613, 6.8969122 ] } },
{ "type": "Feature", "properties": { "osm_id": "1128187926", "code": 5601, "fclass": "railway_station", "name": "Cotta Road" }, "geometry": { "type": "Point", "coordinates": [ 79.8845224, 6.9133542 ] } },
{ "type": "Feature", "properties": { "osm_id": "1128188042", "code": 5601, "fclass": "railway_station", "name": "Kirulapona" }, "geometry": { "type": "Point", "coordinates": [ 79.8828978, 6.8830467 ] } },
{ "type": "Feature", "properties": { "osm_id": "3092671587", "code": 5601, "fclass": "railway_station", "name": "Pangiriwatta" }, "geometry": { "type": "Point", "coordinates": [ 79.9022473, 6.864956 ] } },
{ "type": "Feature", "properties": { "osm_id": "1128192639", "code": 5601, "fclass": "railway_station", "name": "Udahamulla" }, "geometry": { "type": "Point", "coordinates": [ 79.9087271, 6.8622118 ] } },
{ "type": "Feature", "properties": { "osm_id": "1128188069", "code": 5601, "fclass": "railway_station", "name": "Nawinna" }, "geometry": { "type": "Point", "coordinates": [ 79.9178611, 6.8528888 ] } },
{ "type": "Feature", "properties": { "osm_id": "10050777350", "code": 5601, "fclass": "railway_station", "name": "Pannipitiya" }, "geometry": { "type": "Point", "coordinates": [ 79.9488784, 6.8473816 ] } },
{ "type": "Feature", "properties": { "osm_id": "10050777356", "code": 5601, "fclass": "railway_station", "name": "Maharagama" }, "geometry": { "type": "Point", "coordinates": [ 79.9271848, 6.8480166 ] } },
{ "type": "Feature", "properties": { "osm_id": "10046923330", "code": 5601, "fclass": "railway_station", "name": "Dehiwala" }, "geometry": { "type": "Point", "coordinates": [ 79.8621137, 6.8509082 ] } },
{ "type": "Feature", "properties": { "osm_id": "304322071", "code": 5601, "fclass": "railway_station", "name": "Wanawasala" }, "geometry": { "type": "Point", "coordinates": [ 79.8993572, 6.9755509 ] } },
{ "type": "Feature", "properties": { "osm_id": "5769656118", "code": 5601, "fclass": "railway_station", "name": "Hunupitiya" }, "geometry": { "type": "Point", "coordinates": [ 79.9004906, 6.9877406 ] } },
{ "type": "Feature", "properties": { "osm_id": "5769656117", "code": 5601, "fclass": "railway_station", "name": "Enderamulla" }, "geometry": { "type": "Point", "coordinates": [ 79.9068341, 7.0004396 ] } },
{ "type": "Feature", "properties": { "osm_id": "4753573335", "code": 5601, "fclass": "railway_station", "name": "Lunawa" }, "geometry": { "type": "Point", "coordinates": [ 79.8755526, 6.786652 ] } },
{ "type": "Feature", "properties": { "osm_id": "4753573110", "code": 5601, "fclass": "railway_station", "name": "Angulana" }, "geometry": { "type": "Point", "coordinates": [ 79.8727054, 6.7988303 ] } },
{ "type": "Feature", "properties": { "osm_id": "3092346627", "code": 5601, "fclass": "railway_station", "name": "Koralawalla" }, "geometry": { "type": "Point", "coordinates": [ 79.8859478, 6.7584506 ] } },
{ "type": "Feature", "properties": { "osm_id": "2681885364", "code": 5601, "fclass": "railway_station", "name": "Moratuwa" }, "geometry": { "type": "Point", "coordinates": [ 79.8817806, 6.7743504 ] } },
{ "type": "Feature", "properties": { "osm_id": "5769656116", "code": 5601, "fclass": "railway_station", "name": "Horape" }, "geometry": { "type": "Point", "coordinates": [ 79.918322, 7.0165896 ] } },
{ "type": "Feature", "properties": { "osm_id": "8997200408", "code": 5601, "fclass": "railway_station", "name": "Godagama" }, "geometry": { "type": "Point", "coordinates": [ 80.0328649, 6.8479029 ] } },
{ "type": "Feature", "properties": { "osm_id": "10050777326", "code": 5601, "fclass": "railway_station", "name": "Panagoda" }, "geometry": { "type": "Point", "coordinates": [ 80.0190057, 6.846941 ] } },
{ "type": "Feature", "properties": { "osm_id": "10050777328", "code": 5601, "fclass": "railway_station", "name": "Homagama" }, "geometry": { "type": "Point", "coordinates": [ 80.0042414, 6.8456046 ] } },
{ "type": "Feature", "properties": { "osm_id": "10050777335", "code": 5601, "fclass": "railway_station", "name": "Homagama Hospital" }, "geometry": { "type": "Point", "coordinates": [ 79.992439, 6.8457616 ] } },
{ "type": "Feature", "properties": { "osm_id": "10050777317", "code": 5601, "fclass": "railway_station", "name": "Watareka" }, "geometry": { "type": "Point", "coordinates": [ 80.0598726, 6.8431734 ] } },
{ "type": "Feature", "properties": { "osm_id": "5769656115", "code": 5601, "fclass": "railway_station", "name": "Ragama" }, "geometry": { "type": "Point", "coordinates": [ 79.921428, 7.0299493 ] } },
{ "type": "Feature", "properties": { "osm_id": "5769838368", "code": 5601, "fclass": "railway_station", "name": "Kandana" }, "geometry": { "type": "Point", "coordinates": [ 79.9015367, 7.04929 ] } },
{ "type": "Feature", "properties": { "osm_id": "5769838369", "code": 5601, "fclass": "railway_station", "name": "Peralanda" }, "geometry": { "type": "Point", "coordinates": [ 79.9122199, 7.0381323 ] } },
{ "type": "Feature", "properties": { "osm_id": "347323315", "code": 5601, "fclass": "railway_station", "name": "Batuwatta" }, "geometry": { "type": "Point", "coordinates": [ 79.9372147, 7.0551005 ] } },
{ "type": "Feature", "properties": { "osm_id": "5769838367", "code": 5601, "fclass": "railway_station", "name": "Kapuwatta" }, "geometry": { "type": "Point", "coordinates": [ 79.896002, 7.0629149 ] } },
{ "type": "Feature", "properties": { "osm_id": "1139279942", "code": 5601, "fclass": "railway_station", "name": "Bulugahagoda" }, "geometry": { "type": "Point", "coordinates": [ 79.9454477, 7.0655794 ] } }
]
}
