{
"type": "FeatureCollection",
"name": "super markets5",
"crs": { "type": "name", "properties": { "name": "urn:ogc:def:crs:OGC:1.3:CRS84" } },
"xy_coordinate_resolution": 1e-15,
"features": [
{ "type": "Feature", "properties": { "osm_id": "13016548055", "code": 2501, "fclass": "supermarket", "name": "Cargills Express" }, "geometry": { "type": "Point", "coordinates": [ 79.8768271, 6.8931483 ] } },
{ "type": "Feature", "properties": { "osm_id": "618771118", "code": 2501, "fclass": "supermarket", "name": "Nugegoda Supermarket" }, "geometry": { "type": "Point", "coordinates": [ 79.8914526, 6.8729147 ] } },
{ "type": "Feature", "properties": { "osm_id": "3166156577", "code": 2501, "fclass": "supermarket", "name": "Cargills" }, "geometry": { "type": "Point", "coordinates": [ 79.890339, 6.8725466 ] } },
{ "type": "Feature", "properties": { "osm_id": "3742289385", "code": 2501, "fclass": "supermarket", "name": "Laugfs" }, "geometry": { "type": "Point", "coordinates": [ 79.8657804, 6.8856663 ] } },
{ "type": "Feature", "properties": { "osm_id": "618532478", "code": 2501, "fclass": "supermarket", "name": "Cargills Food City" }, "geometry": { "type": "Point", "coordinates": [ 79.8919082, 6.9326251 ] } },
{ "type": "Feature", "properties": { "osm_id": "2328962656", "code": 2501, "fclass": "supermarket", "name": "Lanka Sathosa" }, "geometry": { "type": "Point", "coordinates": [ 79.8550245, 6.9315736 ] } },
{ "type": "Feature", "properties": { "osm_id": "9351831328", "code": 2501, "fclass": "supermarket", "name": "Tang Dynasty Chinese Supermarket" }, "geometry": { "type": "Point", "coordinates": [ 79.8547367, 6.896174 ] } },
{ "type": "Feature", "properties": { "osm_id": "4240062974", "code": 2501, "fclass": "supermarket", "name": "Cargills Super market Rajagiriya" }, "geometry": { "type": "Point", "coordinates": [ 79.8942872, 6.9101063 ] } },
{ "type": "Feature", "properties": { "osm_id": "620382898", "code": 2501, "fclass": "supermarket", "name": "Liberty Plaza" }, "geometry": { "type": "Point", "coordinates": [ 79.8511941, 6.9118581 ] } },
{ "type": "Feature", "properties": { "osm_id": "5592205622", "code": 2501, "fclass": "supermarket", "name": "Lanka Sathosa" }, "geometry": { "type": "Point", "coordinates": [ 79.8444971, 6.933731 ] } },
{ "type": "Feature", "properties": { "osm_id": "6744982005", "code": 2501, "fclass": "supermarket", "name": "Keells" }, "geometry": { "type": "Point", "coordinates": [ 79.8482317, 6.9170919 ] } },
{ "type": "Feature", "properties": { "osm_id": "6744984924", "code": 2501, "fclass": "supermarket", "name": "Jalanka Japanese Supermarket" }, "geometry": { "type": "Point", "coordinates": [ 79.8810713, 6.9112895 ] } },
{ "type": "Feature", "properties": { "osm_id": "13620894450", "code": 2501, "fclass": "supermarket", "name": "Cargills Food City" }, "geometry": { "type": "Point", "coordinates": [ 79.8604307, 6.8764976 ] } },
{ "type": "Feature", "properties": { "osm_id": "2059552890", "code": 2501, "fclass": "supermarket", "name": "Keells" }, "geometry": { "type": "Point", "coordinates": [ 79.8647161, 6.8868839 ] } },
{ "type": "Feature", "properties": { "osm_id": "6735142361", "code": 2501, "fclass": "supermarket", "name": "Cargills Food City" }, "geometry": { "type": "Point", "coordinates": [ 79.893966, 6.8783383 ] } },
{ "type": "Feature", "properties": { "osm_id": "5658510422", "code": 2501, "fclass": "supermarket", "name": null }, "geometry": { "type": "Point", "coordinates": [ 79.8540663, 6.9349191 ] } },
{ "type": "Feature", "properties": { "osm_id": "4264240491", "code": 2501, "fclass": "supermarket", "name": "Highland Shop Mirihana" }, "geometry": { "type": "Point", "coordinates": [ 79.9013689, 6.8758999 ] } },
{ "type": "Feature", "properties": { "osm_id": "2049675494", "code": 2501, "fclass": "supermarket", "name": "Cargills Jawatta Road" }, "geometry": { "type": "Point", "coordinates": [ 79.8668208, 6.8950624 ] } },
{ "type": "Feature", "properties": { "osm_id": "1778786494", "code": 2501, "fclass": "supermarket", "name": "Cargills Food City" }, "geometry": { "type": "Point", "coordinates": [ 79.8618133, 6.8711819 ] } },
{ "type": "Feature", "properties": { "osm_id": "5653338422", "code": 2501, "fclass": "supermarket", "name": null }, "geometry": { "type": "Point", "coordinates": [ 79.8650179, 6.9248877 ] } },
{ "type": "Feature", "properties": { "osm_id": "4986295121", "code": 2501, "fclass": "supermarket", "name": "Supun Arcade" }, "geometry": { "type": "Point", "coordinates": [ 79.8605431, 6.876149 ] } },
{ "type": "Feature", "properties": { "osm_id": "6467962406", "code": 2501, "fclass": "supermarket", "name": "Good Market" }, "geometry": { "type": "Point", "coordinates": [ 79.9228917, 6.8977527 ] } },
{ "type": "Feature", "properties": { "osm_id": "4492298420", "code": 2501, "fclass": "supermarket", "name": "Keells Super" }, "geometry": { "type": "Point", "coordinates": [ 79.9096236, 6.8835542 ] } },
{ "type": "Feature", "properties": { "osm_id": "2091781288", "code": 2501, "fclass": "supermarket", "name": "Sathosa" }, "geometry": { "type": "Point", "coordinates": [ 79.9002231, 6.8762062 ] } },
{ "type": "Feature", "properties": { "osm_id": "5729337751", "code": 2501, "fclass": "supermarket", "name": "Keels Super" }, "geometry": { "type": "Point", "coordinates": [ 79.9182667, 6.9358726 ] } },
{ "type": "Feature", "properties": { "osm_id": "10273305565", "code": 2501, "fclass": "supermarket", "name": "Cargills Food City" }, "geometry": { "type": "Point", "coordinates": [ 79.858174, 6.8962144 ] } },
{ "type": "Feature", "properties": { "osm_id": "6626986861", "code": 2501, "fclass": "supermarket", "name": "Thamali Stores" }, "geometry": { "type": "Point", "coordinates": [ 79.9098035, 6.8894526 ] } },
{ "type": "Feature", "properties": { "osm_id": "6626986863", "code": 2501, "fclass": "supermarket", "name": "Chandanee Store" }, "geometry": { "type": "Point", "coordinates": [ 79.9121211, 6.8891231 ] } },
{ "type": "Feature", "properties": { "osm_id": "2093028057", "code": 2501, "fclass": "supermarket", "name": "Cargills Food City" }, "geometry": { "type": "Point", "coordinates": [ 79.8701274, 6.9159346 ] } },
{ "type": "Feature", "properties": { "osm_id": "4526391489", "code": 2501, "fclass": "supermarket", "name": null }, "geometry": { "type": "Point", "coordinates": [ 79.8521614, 6.910605 ] } },
{ "type": "Feature", "properties": { "osm_id": "11330642723", "code": 2501, "fclass": "supermarket", "name": "Greenware Premium" }, "geometry": { "type": "Point", "coordinates": [ 79.8566922, 6.8894497 ] } },
{ "type": "Feature", "properties": { "osm_id": "2096574174", "code": 2501, "fclass": "supermarket", "name": "Cargills" }, "geometry": { "type": "Point", "coordinates": [ 79.8658908, 6.9225169 ] } },
{ "type": "Feature", "properties": { "osm_id": "12618001301", "code": 2501, "fclass": "supermarket", "name": "Cargills" }, "geometry": { "type": "Point", "coordinates": [ 79.8502907, 6.9096501 ] } },
{ "type": "Feature", "properties": { "osm_id": "2619376508", "code": 2501, "fclass": "supermarket", "name": "Puhulyaya Supermarket" }, "geometry": { "type": "Point", "coordinates": [ 79.9021346, 6.8745837 ] } },
{ "type": "Feature", "properties": { "osm_id": "12618000801", "code": 2501, "fclass": "supermarket", "name": "Cargills" }, "geometry": { "type": "Point", "coordinates": [ 79.8546296, 6.9117592 ] } },
{ "type": "Feature", "properties": { "osm_id": "1985256185", "code": 2501, "fclass": "supermarket", "name": "Keells" }, "geometry": { "type": "Point", "coordinates": [ 79.8810527, 6.9138829 ] } },
{ "type": "Feature", "properties": { "osm_id": "2571694780", "code": 2501, "fclass": "supermarket", "name": "Keels Super" }, "geometry": { "type": "Point", "coordinates": [ 79.916187, 6.9153103 ] } },
{ "type": "Feature", "properties": { "osm_id": "12591954986", "code": 2501, "fclass": "supermarket", "name": "U Life Supermarket" }, "geometry": { "type": "Point", "coordinates": [ 79.8533537, 6.9056869 ] } },
{ "type": "Feature", "properties": { "osm_id": "1819715431", "code": 2501, "fclass": "supermarket", "name": "Cargills" }, "geometry": { "type": "Point", "coordinates": [ 79.9058424, 6.9012498 ] } },
{ "type": "Feature", "properties": { "osm_id": "3713376157", "code": 2501, "fclass": "supermarket", "name": "Cargills Food City" }, "geometry": { "type": "Point", "coordinates": [ 79.8960484, 6.8748439 ] } },
{ "type": "Feature", "properties": { "osm_id": "4173388353", "code": 2501, "fclass": "supermarket", "name": "Laugfs Supermarket" }, "geometry": { "type": "Point", "coordinates": [ 79.9006329, 6.907665 ] } },
{ "type": "Feature", "properties": { "osm_id": "672817741", "code": 2501, "fclass": "supermarket", "name": "Cargills Food City" }, "geometry": { "type": "Point", "coordinates": [ 79.8875332, 6.8879948 ] } },
{ "type": "Feature", "properties": { "osm_id": "3713376148", "code": 2501, "fclass": "supermarket", "name": "Keells Super" }, "geometry": { "type": "Point", "coordinates": [ 79.8942868, 6.8756419 ] } },
{ "type": "Feature", "properties": { "osm_id": "7796392921", "code": 2501, "fclass": "supermarket", "name": "Kenko 1st" }, "geometry": { "type": "Point", "coordinates": [ 79.8667746, 6.9157238 ] } },
{ "type": "Feature", "properties": { "osm_id": "13510719350", "code": 2501, "fclass": "supermarket", "name": "Cargills Food City Express" }, "geometry": { "type": "Point", "coordinates": [ 79.9180755, 6.9532422 ] } },
{ "type": "Feature", "properties": { "osm_id": "5424662121", "code": 2501, "fclass": "supermarket", "name": "Keels Super" }, "geometry": { "type": "Point", "coordinates": [ 79.8610403, 6.9484192 ] } },
{ "type": "Feature", "properties": { "osm_id": "3933399143", "code": 2501, "fclass": "supermarket", "name": "Madushan Stores" }, "geometry": { "type": "Point", "coordinates": [ 79.923751, 6.9164087 ] } },
{ "type": "Feature", "properties": { "osm_id": "5480013522", "code": 2501, "fclass": "supermarket", "name": "Keels Super Wellampitiya" }, "geometry": { "type": "Point", "coordinates": [ 79.9032676, 6.9371923 ] } },
{ "type": "Feature", "properties": { "osm_id": "1672991080", "code": 2501, "fclass": "supermarket", "name": "Borella Super Market" }, "geometry": { "type": "Point", "coordinates": [ 79.8778869, 6.9142243 ] } },
{ "type": "Feature", "properties": { "osm_id": "674102821", "code": 2501, "fclass": "supermarket", "name": "Keells Kotte" }, "geometry": { "type": "Point", "coordinates": [ 79.9027207, 6.8888866 ] } },
{ "type": "Feature", "properties": { "osm_id": "1668905659", "code": 2501, "fclass": "supermarket", "name": "Keells" }, "geometry": { "type": "Point", "coordinates": [ 79.9023036, 6.9068689 ] } },
{ "type": "Feature", "properties": { "osm_id": "7140646434", "code": 2501, "fclass": "supermarket", "name": "Cargills Food City" }, "geometry": { "type": "Point", "coordinates": [ 79.9015408, 6.8826809 ] } },
{ "type": "Feature", "properties": { "osm_id": "12460385528", "code": 2501, "fclass": "supermarket", "name": "Cargills Food City" }, "geometry": { "type": "Point", "coordinates": [ 79.849425, 6.9256622 ] } },
{ "type": "Feature", "properties": { "osm_id": "5203640424", "code": 2501, "fclass": "supermarket", "name": "Co-op city" }, "geometry": { "type": "Point", "coordinates": [ 79.8616919, 6.8733985 ] } },
{ "type": "Feature", "properties": { "osm_id": "4948953822", "code": 2501, "fclass": "supermarket", "name": "Keels" }, "geometry": { "type": "Point", "coordinates": [ 79.9072109, 6.9507302 ] } },
{ "type": "Feature", "properties": { "osm_id": "10946071767", "code": 2501, "fclass": "supermarket", "name": "Keels" }, "geometry": { "type": "Point", "coordinates": [ 79.8446099, 6.9272713 ] } },
{ "type": "Feature", "properties": { "osm_id": "2049615730", "code": 2501, "fclass": "supermarket", "name": "Lucky Plaza" }, "geometry": { "type": "Point", "coordinates": [ 79.8521653, 6.9070901 ] } },
{ "type": "Feature", "properties": { "osm_id": "2760377083", "code": 2501, "fclass": "supermarket", "name": "Angoda" }, "geometry": { "type": "Point", "coordinates": [ 79.9255148, 6.9357219 ] } },
{ "type": "Feature", "properties": { "osm_id": "2049590782", "code": 2501, "fclass": "supermarket", "name": "Millers Fort" }, "geometry": { "type": "Point", "coordinates": [ 79.8447372, 6.9353839 ] } },
{ "type": "Feature", "properties": { "osm_id": "1674343737", "code": 2501, "fclass": "supermarket", "name": "Cargills Food City" }, "geometry": { "type": "Point", "coordinates": [ 79.854465, 6.8940284 ] } },
{ "type": "Feature", "properties": { "osm_id": "4007555647", "code": 2501, "fclass": "supermarket", "name": "Good Market" }, "geometry": { "type": "Point", "coordinates": [ 79.8631545, 6.9057898 ] } },
{ "type": "Feature", "properties": { "osm_id": "682747844", "code": 2501, "fclass": "supermarket", "name": "KFC" }, "geometry": { "type": "Point", "coordinates": [ 79.8447967, 6.9356618 ] } },
{ "type": "Feature", "properties": { "osm_id": "1863416585", "code": 2501, "fclass": "supermarket", "name": "Laugh Supermarket" }, "geometry": { "type": "Point", "coordinates": [ 79.8786534, 6.9430731 ] } },
{ "type": "Feature", "properties": { "osm_id": "5215669326", "code": 2501, "fclass": "supermarket", "name": "Sathosa" }, "geometry": { "type": "Point", "coordinates": [ 79.9162795, 6.9497278 ] } },
{ "type": "Feature", "properties": { "osm_id": "1420481836", "code": 2501, "fclass": "supermarket", "name": "Cargills Food City" }, "geometry": { "type": "Point", "coordinates": [ 79.9009203, 6.8749751 ] } },
{ "type": "Feature", "properties": { "osm_id": "8638244484", "code": 2501, "fclass": "supermarket", "name": "Spring and Summer" }, "geometry": { "type": "Point", "coordinates": [ 79.8512826, 6.9056749 ] } },
{ "type": "Feature", "properties": { "osm_id": "1420464169", "code": 2501, "fclass": "supermarket", "name": "Laugfs" }, "geometry": { "type": "Point", "coordinates": [ 79.9006937, 6.8767787 ] } },
{ "type": "Feature", "properties": { "osm_id": "8638308054", "code": 2501, "fclass": "supermarket", "name": "Narahenpita Economic Centre" }, "geometry": { "type": "Point", "coordinates": [ 79.8821642, 6.8932121 ] } },
{ "type": "Feature", "properties": { "osm_id": "5242147922", "code": 2501, "fclass": "supermarket", "name": null }, "geometry": { "type": "Point", "coordinates": [ 79.8778493, 6.9155279 ] } },
{ "type": "Feature", "properties": { "osm_id": "12525696976", "code": 2501, "fclass": "supermarket", "name": "Cargills Food City" }, "geometry": { "type": "Point", "coordinates": [ 79.8936691, 6.9017707 ] } },
{ "type": "Feature", "properties": { "osm_id": "1870801706", "code": 2501, "fclass": "supermarket", "name": "Arpico Super Center" }, "geometry": { "type": "Point", "coordinates": [ 79.8607565, 6.9175437 ] } },
{ "type": "Feature", "properties": { "osm_id": "9992118260", "code": 2501, "fclass": "supermarket", "name": "Thulir supermarket" }, "geometry": { "type": "Point", "coordinates": [ 79.8615925, 6.8724469 ] } },
{ "type": "Feature", "properties": { "osm_id": "625793246", "code": 2501, "fclass": "supermarket", "name": "Laugfs" }, "geometry": { "type": "Point", "coordinates": [ 79.902066, 6.8836484 ] } },
{ "type": "Feature", "properties": { "osm_id": "6331797655", "code": 2501, "fclass": "supermarket", "name": "215 Market" }, "geometry": { "type": "Point", "coordinates": [ 79.8515752, 6.9383673 ] } },
{ "type": "Feature", "properties": { "osm_id": "4706141389", "code": 2501, "fclass": "supermarket", "name": "Cargills Food City" }, "geometry": { "type": "Point", "coordinates": [ 79.881027, 6.8754027 ] } },
{ "type": "Feature", "properties": { "osm_id": "625793245", "code": 2501, "fclass": "supermarket", "name": "Cargills" }, "geometry": { "type": "Point", "coordinates": [ 79.9017762, 6.8834777 ] } },
{ "type": "Feature", "properties": { "osm_id": "12566711750", "code": 2501, "fclass": "supermarket", "name": "Cargills Food City" }, "geometry": { "type": "Point", "coordinates": [ 79.8676665, 6.8825931 ] } },
{ "type": "Feature", "properties": { "osm_id": "5777273653", "code": 2501, "fclass": "supermarket", "name": null }, "geometry": { "type": "Point", "coordinates": [ 79.852906, 6.9321998 ] } },
{ "type": "Feature", "properties": { "osm_id": "5779152053", "code": 2501, "fclass": "supermarket", "name": "Cargills Food City" }, "geometry": { "type": "Point", "coordinates": [ 79.8670954, 6.9257294 ] } },
{ "type": "Feature", "properties": { "osm_id": "5779869299", "code": 2501, "fclass": "supermarket", "name": "සුලේකෝ(පුද්ගලික)සමාගම -ගබඩා සංකීර්ණය" }, "geometry": { "type": "Point", "coordinates": [ 79.9097517, 6.8866483 ] } },
{ "type": "Feature", "properties": { "osm_id": "2407520063", "code": 2501, "fclass": "supermarket", "name": "Keells Super" }, "geometry": { "type": "Point", "coordinates": [ 79.891174, 6.8967472 ] } },
{ "type": "Feature", "properties": { "osm_id": "1877120231", "code": 2501, "fclass": "supermarket", "name": "Supun Super Center" }, "geometry": { "type": "Point", "coordinates": [ 79.8596253, 6.8878079 ] } },
{ "type": "Feature", "properties": { "osm_id": "10030862552", "code": 2501, "fclass": "supermarket", "name": "Lanka Sathosa" }, "geometry": { "type": "Point", "coordinates": [ 79.8984025, 6.8747779 ] } },
{ "type": "Feature", "properties": { "osm_id": "4690842990", "code": 2501, "fclass": "supermarket", "name": null }, "geometry": { "type": "Point", "coordinates": [ 79.8729619, 6.8962484 ] } },
{ "type": "Feature", "properties": { "osm_id": "2491860236", "code": 2501, "fclass": "supermarket", "name": "Supun Arcade" }, "geometry": { "type": "Point", "coordinates": [ 79.8623525, 6.8738791 ] } },
{ "type": "Feature", "properties": { "osm_id": "1918174781", "code": 2501, "fclass": "supermarket", "name": "Keells" }, "geometry": { "type": "Point", "coordinates": [ 79.9202593, 6.9358566 ] } },
{ "type": "Feature", "properties": { "osm_id": "10291746323", "code": 2501, "fclass": "supermarket", "name": "Cargills Food City" }, "geometry": { "type": "Point", "coordinates": [ 79.855295, 6.9172844 ] } },
{ "type": "Feature", "properties": { "osm_id": "1918165068", "code": 2501, "fclass": "supermarket", "name": "Cargills" }, "geometry": { "type": "Point", "coordinates": [ 79.9163863, 6.9347278 ] } },
{ "type": "Feature", "properties": { "osm_id": "2425256566", "code": 2501, "fclass": "supermarket", "name": "CO-OP City" }, "geometry": { "type": "Point", "coordinates": [ 79.8905019, 6.9327294 ] } },
{ "type": "Feature", "properties": { "osm_id": "667759341", "code": 2501, "fclass": "supermarket", "name": "Cargills Food City" }, "geometry": { "type": "Point", "coordinates": [ 79.873024, 6.8878374 ] } },
{ "type": "Feature", "properties": { "osm_id": "1912464488", "code": 2501, "fclass": "supermarket", "name": "Cargills Food City" }, "geometry": { "type": "Point", "coordinates": [ 79.9100735, 6.9140666 ] } },
{ "type": "Feature", "properties": { "osm_id": "8375959278", "code": 2501, "fclass": "supermarket", "name": "Asian Market China Way" }, "geometry": { "type": "Point", "coordinates": [ 79.8551681, 6.8973583 ] } },
{ "type": "Feature", "properties": { "osm_id": "667274851", "code": 2501, "fclass": "supermarket", "name": "Laughs Super Market" }, "geometry": { "type": "Point", "coordinates": [ 79.8621555, 6.8715224 ] } },
{ "type": "Feature", "properties": { "osm_id": "666903864", "code": 2501, "fclass": "supermarket", "name": "Keells" }, "geometry": { "type": "Point", "coordinates": [ 79.8850597, 6.8713869 ] } },
{ "type": "Feature", "properties": { "osm_id": "3403251709", "code": 2501, "fclass": "supermarket", "name": "Lanka Sathosa" }, "geometry": { "type": "Point", "coordinates": [ 79.9173897, 6.9497432 ] } },
{ "type": "Feature", "properties": { "osm_id": "3403251711", "code": 2501, "fclass": "supermarket", "name": "Cargills" }, "geometry": { "type": "Point", "coordinates": [ 79.905222, 6.9518048 ] } },
{ "type": "Feature", "properties": { "osm_id": "663265623", "code": 2501, "fclass": "supermarket", "name": "Laugfs" }, "geometry": { "type": "Point", "coordinates": [ 79.8763061, 6.908206 ] } },
{ "type": "Feature", "properties": { "osm_id": "6979561984", "code": 2501, "fclass": "supermarket", "name": "Keells" }, "geometry": { "type": "Point", "coordinates": [ 79.9270412, 6.932341 ] } },
{ "type": "Feature", "properties": { "osm_id": "8296436326", "code": 2501, "fclass": "supermarket", "name": "Cargills Food City" }, "geometry": { "type": "Point", "coordinates": [ 79.8548756, 6.8865133 ] } },
{ "type": "Feature", "properties": { "osm_id": "6942665770", "code": 2501, "fclass": "supermarket", "name": "Lanka Sathosa" }, "geometry": { "type": "Point", "coordinates": [ 79.8782271, 6.9140316 ] } },
{ "type": "Feature", "properties": { "osm_id": "6025156124", "code": 2501, "fclass": "supermarket", "name": "Keels Super" }, "geometry": { "type": "Point", "coordinates": [ 79.92723, 6.93176 ] } },
{ "type": "Feature", "properties": { "osm_id": "8560648119", "code": 2501, "fclass": "supermarket", "name": "Keells" }, "geometry": { "type": "Point", "coordinates": [ 79.9223391, 6.8966313 ] } },
{ "type": "Feature", "properties": { "osm_id": "12100573136", "code": 2501, "fclass": "supermarket", "name": "Cargills Food City" }, "geometry": { "type": "Point", "coordinates": [ 79.8782064, 6.9286469 ] } },
{ "type": "Feature", "properties": { "osm_id": "269067743", "code": 2501, "fclass": "supermarket", "name": "P & A" }, "geometry": { "type": "Point", "coordinates": [ 79.8614816, 6.8824777 ] } },
{ "type": "Feature", "properties": { "osm_id": "7040336690", "code": 2501, "fclass": "supermarket", "name": "Beemas" }, "geometry": { "type": "Point", "coordinates": [ 79.8502584, 6.9120412 ] } },
{ "type": "Feature", "properties": { "osm_id": "2148613680", "code": 2501, "fclass": "supermarket", "name": "Keells Super" }, "geometry": { "type": "Point", "coordinates": [ 79.8543553, 6.8893104 ] } },
{ "type": "Feature", "properties": { "osm_id": "7040317748", "code": 2501, "fclass": "supermarket", "name": "Branas" }, "geometry": { "type": "Point", "coordinates": [ 79.8501955, 6.9120293 ] } },
{ "type": "Feature", "properties": { "osm_id": "255671691", "code": 2501, "fclass": "supermarket", "name": "Cargills Food City" }, "geometry": { "type": "Point", "coordinates": [ 79.8558233, 6.9202306 ] } },
{ "type": "Feature", "properties": { "osm_id": "7040330006", "code": 2501, "fclass": "supermarket", "name": "Chinese Lanka" }, "geometry": { "type": "Point", "coordinates": [ 79.8502676, 6.9121269 ] } },
{ "type": "Feature", "properties": { "osm_id": "10702093739", "code": 2501, "fclass": "supermarket", "name": "Cargills Food City" }, "geometry": { "type": "Point", "coordinates": [ 79.868635, 6.9018094 ] } },
{ "type": "Feature", "properties": { "osm_id": "12105611064", "code": 2501, "fclass": "supermarket", "name": "Cargills Food City" }, "geometry": { "type": "Point", "coordinates": [ 79.854571, 6.9024987 ] } },
{ "type": "Feature", "properties": { "osm_id": "12107888169", "code": 2501, "fclass": "supermarket", "name": "ULife Supermarket" }, "geometry": { "type": "Point", "coordinates": [ 79.8584861, 6.9202407 ] } },
{ "type": "Feature", "properties": { "osm_id": "617222730", "code": 2501, "fclass": "supermarket", "name": "Economic Shops & Groceries" }, "geometry": { "type": "Point", "coordinates": [ 79.8825502, 6.8938643 ] } },
{ "type": "Feature", "properties": { "osm_id": "6139828087", "code": 2501, "fclass": "supermarket", "name": "Aache Food Center" }, "geometry": { "type": "Point", "coordinates": [ 79.8659907, 6.8740722 ] } },
{ "type": "Feature", "properties": { "osm_id": "3740334335", "code": 2501, "fclass": "supermarket", "name": "Cargills" }, "geometry": { "type": "Point", "coordinates": [ 79.8866701, 6.9115953 ] } },
{ "type": "Feature", "properties": { "osm_id": "617141645", "code": 2501, "fclass": "supermarket", "name": "Keells Super" }, "geometry": { "type": "Point", "coordinates": [ 79.8559888, 6.9214572 ] } },
{ "type": "Feature", "properties": { "osm_id": "617204872", "code": 2501, "fclass": "supermarket", "name": "Laugfs" }, "geometry": { "type": "Point", "coordinates": [ 79.9279242, 6.8911717 ] } },
{ "type": "Feature", "properties": { "osm_id": "6632965091", "code": 2501, "fclass": "supermarket", "name": "Sathosa" }, "geometry": { "type": "Point", "coordinates": [ 79.8981925, 6.8753208 ] } },
{ "type": "Feature", "properties": { "osm_id": "5566785028", "code": 2501, "fclass": "supermarket", "name": "Cargills Food City" }, "geometry": { "type": "Point", "coordinates": [ 79.8593178, 6.9487783 ] } },
{ "type": "Feature", "properties": { "osm_id": "3166118866", "code": 2501, "fclass": "supermarket", "name": "Keells Super" }, "geometry": { "type": "Point", "coordinates": [ 79.8953429, 6.8657792 ] } },
{ "type": "Feature", "properties": { "osm_id": "4623063289", "code": 2501, "fclass": "supermarket", "name": "Arpico super center" }, "geometry": { "type": "Point", "coordinates": [ 79.8836049, 6.8667092 ] } },
{ "type": "Feature", "properties": { "osm_id": "4516583411", "code": 2501, "fclass": "supermarket", "name": "Keells Super" }, "geometry": { "type": "Point", "coordinates": [ 79.880743, 6.8695843 ] } },
{ "type": "Feature", "properties": { "osm_id": "5142268194", "code": 2501, "fclass": "supermarket", "name": "Cargills Food City" }, "geometry": { "type": "Point", "coordinates": [ 79.9100714, 6.8568781 ] } },
{ "type": "Feature", "properties": { "osm_id": "8791666697", "code": 2501, "fclass": "supermarket", "name": "Spar" }, "geometry": { "type": "Point", "coordinates": [ 79.8852555, 6.8545821 ] } },
{ "type": "Feature", "properties": { "osm_id": "10110505995", "code": 2501, "fclass": "supermarket", "name": "Annai Nagaa Food City" }, "geometry": { "type": "Point", "coordinates": [ 79.862358, 6.8682027 ] } },
{ "type": "Feature", "properties": { "osm_id": "11668743943", "code": 2501, "fclass": "supermarket", "name": "Cargills Food City" }, "geometry": { "type": "Point", "coordinates": [ 79.8983589, 6.8687898 ] } },
{ "type": "Feature", "properties": { "osm_id": "678824221", "code": 2501, "fclass": "supermarket", "name": "Laufgs" }, "geometry": { "type": "Point", "coordinates": [ 79.8851431, 6.8665315 ] } },
{ "type": "Feature", "properties": { "osm_id": "678824222", "code": 2501, "fclass": "supermarket", "name": "Cargills" }, "geometry": { "type": "Point", "coordinates": [ 79.884156, 6.8669132 ] } },
{ "type": "Feature", "properties": { "osm_id": "10112922250", "code": 2501, "fclass": "supermarket", "name": "Amma Food Store" }, "geometry": { "type": "Point", "coordinates": [ 79.8625342, 6.8691343 ] } },
{ "type": "Feature", "properties": { "osm_id": "10112922249", "code": 2501, "fclass": "supermarket", "name": "Vasantham Foods" }, "geometry": { "type": "Point", "coordinates": [ 79.8624806, 6.8691021 ] } },
{ "type": "Feature", "properties": { "osm_id": "1673031660", "code": 2501, "fclass": "supermarket", "name": "Keells Super" }, "geometry": { "type": "Point", "coordinates": [ 79.908165, 6.8576485 ] } },
{ "type": "Feature", "properties": { "osm_id": "2810716420", "code": 2501, "fclass": "supermarket", "name": "Keells Super" }, "geometry": { "type": "Point", "coordinates": [ 79.908885, 6.8686051 ] } },
{ "type": "Feature", "properties": { "osm_id": "4948511727", "code": 2501, "fclass": "supermarket", "name": "Cargills Food City" }, "geometry": { "type": "Point", "coordinates": [ 79.9274701, 6.8660568 ] } },
{ "type": "Feature", "properties": { "osm_id": "1694062101", "code": 2501, "fclass": "supermarket", "name": "Cargills" }, "geometry": { "type": "Point", "coordinates": [ 79.897272, 6.864607 ] } },
{ "type": "Feature", "properties": { "osm_id": "2045952806", "code": 2501, "fclass": "supermarket", "name": "Arpico Super Centre" }, "geometry": { "type": "Point", "coordinates": [ 79.9176724, 6.8525915 ] } },
{ "type": "Feature", "properties": { "osm_id": "8602519972", "code": 2501, "fclass": "supermarket", "name": "Bloom Kandy" }, "geometry": { "type": "Point", "coordinates": [ 79.8656125, 6.8532849 ] } },
{ "type": "Feature", "properties": { "osm_id": "625829324", "code": 2501, "fclass": "supermarket", "name": "Cargills Pepiliyana" }, "geometry": { "type": "Point", "coordinates": [ 79.8902875, 6.8590095 ] } },
{ "type": "Feature", "properties": { "osm_id": "3367694116", "code": 2501, "fclass": "supermarket", "name": "Pussellawa" }, "geometry": { "type": "Point", "coordinates": [ 79.9132362, 6.8552841 ] } },
{ "type": "Feature", "properties": { "osm_id": "2441614371", "code": 2501, "fclass": "supermarket", "name": "Cargills Food City" }, "geometry": { "type": "Point", "coordinates": [ 79.9133392, 6.8623431 ] } },
{ "type": "Feature", "properties": { "osm_id": "637477848", "code": 2501, "fclass": "supermarket", "name": "Crystal Super Market" }, "geometry": { "type": "Point", "coordinates": [ 79.8642219, 6.8599974 ] } },
{ "type": "Feature", "properties": { "osm_id": "3403171830", "code": 2501, "fclass": "supermarket", "name": "Cargills Food City" }, "geometry": { "type": "Point", "coordinates": [ 79.909214, 6.8569409 ] } },
{ "type": "Feature", "properties": { "osm_id": "10565231431", "code": 2501, "fclass": "supermarket", "name": "Cargills Food City" }, "geometry": { "type": "Point", "coordinates": [ 79.8646309, 6.8591951 ] } },
{ "type": "Feature", "properties": { "osm_id": "4353059089", "code": 2501, "fclass": "supermarket", "name": "Keels Super (Dehiwela)" }, "geometry": { "type": "Point", "coordinates": [ 79.8668789, 6.8632147 ] } },
{ "type": "Feature", "properties": { "osm_id": "3219753463", "code": 2501, "fclass": "supermarket", "name": "Sathosa" }, "geometry": { "type": "Point", "coordinates": [ 79.9219009, 6.8426678 ] } },
{ "type": "Feature", "properties": { "osm_id": "10167923343", "code": 2501, "fclass": "supermarket", "name": "Cargills Food City" }, "geometry": { "type": "Point", "coordinates": [ 79.9339539, 6.8919755 ] } },
{ "type": "Feature", "properties": { "osm_id": "4285740083", "code": 2501, "fclass": "supermarket", "name": "Keells" }, "geometry": { "type": "Point", "coordinates": [ 79.9208474, 6.8427784 ] } },
{ "type": "Feature", "properties": { "osm_id": "11842861789", "code": 2501, "fclass": "supermarket", "name": null }, "geometry": { "type": "Point", "coordinates": [ 79.8645289, 6.849665 ] } },
{ "type": "Feature", "properties": { "osm_id": "13735063133", "code": 2501, "fclass": "supermarket", "name": "Cargills Food City" }, "geometry": { "type": "Point", "coordinates": [ 79.9125105, 6.8426652 ] } },
{ "type": "Feature", "properties": { "osm_id": "4267822396", "code": 2501, "fclass": "supermarket", "name": null }, "geometry": { "type": "Point", "coordinates": [ 79.9423503, 6.8452879 ] } },
{ "type": "Feature", "properties": { "osm_id": "11862652389", "code": 2501, "fclass": "supermarket", "name": null }, "geometry": { "type": "Point", "coordinates": [ 79.8667531, 6.8513132 ] } },
{ "type": "Feature", "properties": { "osm_id": "11843054575", "code": 2501, "fclass": "supermarket", "name": null }, "geometry": { "type": "Point", "coordinates": [ 79.8665595, 6.8513189 ] } },
{ "type": "Feature", "properties": { "osm_id": "11843066869", "code": 2501, "fclass": "supermarket", "name": null }, "geometry": { "type": "Point", "coordinates": [ 79.8663687, 6.8513461 ] } },
{ "type": "Feature", "properties": { "osm_id": "2091750895", "code": 2501, "fclass": "supermarket", "name": "Keells Super" }, "geometry": { "type": "Point", "coordinates": [ 79.9204586, 6.8517353 ] } },
{ "type": "Feature", "properties": { "osm_id": "11842960670", "code": 2501, "fclass": "supermarket", "name": null }, "geometry": { "type": "Point", "coordinates": [ 79.8663984, 6.8514184 ] } },
{ "type": "Feature", "properties": { "osm_id": "13437163128", "code": 2501, "fclass": "supermarket", "name": "belta" }, "geometry": { "type": "Point", "coordinates": [ 79.8722983, 6.8210621 ] } },
{ "type": "Feature", "properties": { "osm_id": "913095572", "code": 2501, "fclass": "supermarket", "name": "Laugfs Sunup" }, "geometry": { "type": "Point", "coordinates": [ 79.9303969, 6.8451402 ] } },
{ "type": "Feature", "properties": { "osm_id": "12002014234", "code": 2501, "fclass": "supermarket", "name": "Piyasena" }, "geometry": { "type": "Point", "coordinates": [ 79.8660824, 6.8492954 ] } },
{ "type": "Feature", "properties": { "osm_id": "2093133881", "code": 2501, "fclass": "supermarket", "name": "Dhakshina Super" }, "geometry": { "type": "Point", "coordinates": [ 79.9153677, 6.8433487 ] } },
{ "type": "Feature", "properties": { "osm_id": "1153956867", "code": 2501, "fclass": "supermarket", "name": "Cargills Food City" }, "geometry": { "type": "Point", "coordinates": [ 79.9213403, 6.8060668 ] } },
{ "type": "Feature", "properties": { "osm_id": "2093091909", "code": 2501, "fclass": "supermarket", "name": "Cargills Food City" }, "geometry": { "type": "Point", "coordinates": [ 79.9008403, 6.8403949 ] } },
{ "type": "Feature", "properties": { "osm_id": "1141999410", "code": 2501, "fclass": "supermarket", "name": "Cargils Food City" }, "geometry": { "type": "Point", "coordinates": [ 79.918128, 6.8184054 ] } },
{ "type": "Feature", "properties": { "osm_id": "4077589212", "code": 2501, "fclass": "supermarket", "name": "Cargills Food City Express" }, "geometry": { "type": "Point", "coordinates": [ 79.9317973, 6.8365 ] } },
{ "type": "Feature", "properties": { "osm_id": "4077603374", "code": 2501, "fclass": "supermarket", "name": "Arpico Daily Center" }, "geometry": { "type": "Point", "coordinates": [ 79.935994, 6.8269969 ] } },
{ "type": "Feature", "properties": { "osm_id": "2604344512", "code": 2501, "fclass": "supermarket", "name": "Cargills Food City" }, "geometry": { "type": "Point", "coordinates": [ 79.9379636, 6.8734719 ] } },
{ "type": "Feature", "properties": { "osm_id": "7658234256", "code": 2501, "fclass": "supermarket", "name": "Keells" }, "geometry": { "type": "Point", "coordinates": [ 79.9289682, 6.8765165 ] } },
{ "type": "Feature", "properties": { "osm_id": "1650235355", "code": 2501, "fclass": "supermarket", "name": "Cargills" }, "geometry": { "type": "Point", "coordinates": [ 79.9229039, 6.8499639 ] } },
{ "type": "Feature", "properties": { "osm_id": "1990943761", "code": 2501, "fclass": "supermarket", "name": "Food city express" }, "geometry": { "type": "Point", "coordinates": [ 79.8671666, 6.8327725 ] } },
{ "type": "Feature", "properties": { "osm_id": "6356154391", "code": 2501, "fclass": "supermarket", "name": "Keells" }, "geometry": { "type": "Point", "coordinates": [ 79.9343512, 6.8748537 ] } },
{ "type": "Feature", "properties": { "osm_id": "9179925693", "code": 2501, "fclass": "supermarket", "name": "Keells" }, "geometry": { "type": "Point", "coordinates": [ 79.9266801, 6.8425625 ] } },
{ "type": "Feature", "properties": { "osm_id": "12467117483", "code": 2501, "fclass": "supermarket", "name": "Cargills Food City" }, "geometry": { "type": "Point", "coordinates": [ 79.9067727, 6.832939 ] } },
{ "type": "Feature", "properties": { "osm_id": "9179913270", "code": 2501, "fclass": "supermarket", "name": "Keells" }, "geometry": { "type": "Point", "coordinates": [ 79.9393099, 6.8087476 ] } },
{ "type": "Feature", "properties": { "osm_id": "3504318477", "code": 2501, "fclass": "supermarket", "name": "Lanka Sathosa" }, "geometry": { "type": "Point", "coordinates": [ 79.9099389, 6.8308746 ] } },
{ "type": "Feature", "properties": { "osm_id": "7133218484", "code": 2501, "fclass": "supermarket", "name": "Keells" }, "geometry": { "type": "Point", "coordinates": [ 79.8855974, 6.8467548 ] } },
{ "type": "Feature", "properties": { "osm_id": "3498426855", "code": 2501, "fclass": "supermarket", "name": "Siyaka Super" }, "geometry": { "type": "Point", "coordinates": [ 79.9192127, 6.814488 ] } },
{ "type": "Feature", "properties": { "osm_id": "693003897", "code": 2501, "fclass": "supermarket", "name": "Laugfs Sunup" }, "geometry": { "type": "Point", "coordinates": [ 79.9016683, 6.8416444 ] } },
{ "type": "Feature", "properties": { "osm_id": "12495446228", "code": 2501, "fclass": "supermarket", "name": "Cargills Food City Express" }, "geometry": { "type": "Point", "coordinates": [ 79.9064489, 6.8417932 ] } },
{ "type": "Feature", "properties": { "osm_id": "693003892", "code": 2501, "fclass": "supermarket", "name": "Arpico Super Center" }, "geometry": { "type": "Point", "coordinates": [ 79.9026719, 6.841087 ] } },
{ "type": "Feature", "properties": { "osm_id": "7161597126", "code": 2501, "fclass": "supermarket", "name": "Good Life Super Center" }, "geometry": { "type": "Point", "coordinates": [ 79.93683, 6.876999 ] } },
{ "type": "Feature", "properties": { "osm_id": "7159959187", "code": 2501, "fclass": "supermarket", "name": "Cargills Food City" }, "geometry": { "type": "Point", "coordinates": [ 79.9501616, 6.8802328 ] } },
{ "type": "Feature", "properties": { "osm_id": "9936308591", "code": 2501, "fclass": "supermarket", "name": "Softlogic GLOMARK" }, "geometry": { "type": "Point", "coordinates": [ 79.8668182, 6.8362154 ] } },
{ "type": "Feature", "properties": { "osm_id": "4456333134", "code": 2501, "fclass": "supermarket", "name": "Keells Super" }, "geometry": { "type": "Point", "coordinates": [ 79.877507, 6.8495948 ] } },
{ "type": "Feature", "properties": { "osm_id": "11068258756", "code": 2501, "fclass": "supermarket", "name": "Cargills Food City" }, "geometry": { "type": "Point", "coordinates": [ 79.9229029, 6.8499862 ] } },
{ "type": "Feature", "properties": { "osm_id": "12520124827", "code": 2501, "fclass": "supermarket", "name": "Keells Super - Raththanapitiya" }, "geometry": { "type": "Point", "coordinates": [ 79.895943, 6.8490693 ] } },
{ "type": "Feature", "properties": { "osm_id": "1523693950", "code": 2501, "fclass": "supermarket", "name": "Maharagama Super Market" }, "geometry": { "type": "Point", "coordinates": [ 79.9266287, 6.8465158 ] } },
{ "type": "Feature", "properties": { "osm_id": "6615745065", "code": 2501, "fclass": "supermarket", "name": "FLi Super" }, "geometry": { "type": "Point", "coordinates": [ 79.9158767, 6.8430961 ] } },
{ "type": "Feature", "properties": { "osm_id": "6615745043", "code": 2501, "fclass": "supermarket", "name": "Cargills Food City" }, "geometry": { "type": "Point", "coordinates": [ 79.9223026, 6.843037 ] } },
{ "type": "Feature", "properties": { "osm_id": "8658907686", "code": 2501, "fclass": "supermarket", "name": "OURS Super Center" }, "geometry": { "type": "Point", "coordinates": [ 79.9444168, 6.8454286 ] } },
{ "type": "Feature", "properties": { "osm_id": "8658907689", "code": 2501, "fclass": "supermarket", "name": "CIB Mega City" }, "geometry": { "type": "Point", "coordinates": [ 79.9312519, 6.8450766 ] } },
{ "type": "Feature", "properties": { "osm_id": "2423793566", "code": 2501, "fclass": "supermarket", "name": "Cargills" }, "geometry": { "type": "Point", "coordinates": [ 79.9443721, 6.8585816 ] } },
{ "type": "Feature", "properties": { "osm_id": "621917716", "code": 2501, "fclass": "supermarket", "name": "Keells Super, Mount Lavinia." }, "geometry": { "type": "Point", "coordinates": [ 79.8673272, 6.8318632 ] } },
{ "type": "Feature", "properties": { "osm_id": "621925778", "code": 2501, "fclass": "supermarket", "name": "Family Super" }, "geometry": { "type": "Point", "coordinates": [ 79.8671234, 6.8418723 ] } },
{ "type": "Feature", "properties": { "osm_id": "1895968913", "code": 2501, "fclass": "supermarket", "name": "Mega Sathosa" }, "geometry": { "type": "Point", "coordinates": [ 79.8821457, 6.8104359 ] } },
{ "type": "Feature", "properties": { "osm_id": "1650220311", "code": 2501, "fclass": "supermarket", "name": "Amity" }, "geometry": { "type": "Point", "coordinates": [ 79.9239605, 6.8492836 ] } },
{ "type": "Feature", "properties": { "osm_id": "642886014", "code": 2501, "fclass": "supermarket", "name": "Cargills Food City" }, "geometry": { "type": "Point", "coordinates": [ 79.926325, 6.8452764 ] } },
{ "type": "Feature", "properties": { "osm_id": "1643928818", "code": 2501, "fclass": "supermarket", "name": "Cargills Food City" }, "geometry": { "type": "Point", "coordinates": [ 79.8672887, 6.8372488 ] } },
{ "type": "Feature", "properties": { "osm_id": "1643928268", "code": 2501, "fclass": "supermarket", "name": "Cargills Food City" }, "geometry": { "type": "Point", "coordinates": [ 79.8690532, 6.8277078 ] } },
{ "type": "Feature", "properties": { "osm_id": "4711114094", "code": 2501, "fclass": "supermarket", "name": null }, "geometry": { "type": "Point", "coordinates": [ 79.8739314, 6.8194372 ] } },
{ "type": "Feature", "properties": { "osm_id": "6548789646", "code": 2501, "fclass": "supermarket", "name": "Upeka Super" }, "geometry": { "type": "Point", "coordinates": [ 79.9358152, 6.8160513 ] } },
{ "type": "Feature", "properties": { "osm_id": "3401467701", "code": 2501, "fclass": "supermarket", "name": "Dehiwala Super Market Complex" }, "geometry": { "type": "Point", "coordinates": [ 79.8650976, 6.8510925 ] } },
{ "type": "Feature", "properties": { "osm_id": "269032442", "code": 2501, "fclass": "supermarket", "name": "Cargills Food City" }, "geometry": { "type": "Point", "coordinates": [ 79.8671266, 6.8329646 ] } },
{ "type": "Feature", "properties": { "osm_id": "4769819130", "code": 2501, "fclass": "supermarket", "name": "Cargills Food City" }, "geometry": { "type": "Point", "coordinates": [ 79.8846523, 6.8391747 ] } },
{ "type": "Feature", "properties": { "osm_id": "4769822348", "code": 2501, "fclass": "supermarket", "name": "Co-Op Food City" }, "geometry": { "type": "Point", "coordinates": [ 79.8846523, 6.8388711 ] } },
{ "type": "Feature", "properties": { "osm_id": "5181017135", "code": 2501, "fclass": "supermarket", "name": "Cargills Food City Express" }, "geometry": { "type": "Point", "coordinates": [ 79.9510387, 6.84671 ] } },
{ "type": "Feature", "properties": { "osm_id": "1825438358", "code": 2501, "fclass": "supermarket", "name": "Laughs Supermarket" }, "geometry": { "type": "Point", "coordinates": [ 79.8777889, 6.8495601 ] } },
{ "type": "Feature", "properties": { "osm_id": "4568938581", "code": 2501, "fclass": "supermarket", "name": "Keells Super" }, "geometry": { "type": "Point", "coordinates": [ 79.9406836, 6.8704416 ] } },
{ "type": "Feature", "properties": { "osm_id": "5193031324", "code": 2501, "fclass": "supermarket", "name": null }, "geometry": { "type": "Point", "coordinates": [ 79.8850432, 6.8384728 ] } },
{ "type": "Feature", "properties": { "osm_id": "7865125348", "code": 2501, "fclass": "supermarket", "name": "Cargills Food City" }, "geometry": { "type": "Point", "coordinates": [ 79.9454745, 6.8549879 ] } },
{ "type": "Feature", "properties": { "osm_id": "11842860079", "code": 2501, "fclass": "supermarket", "name": null }, "geometry": { "type": "Point", "coordinates": [ 79.8626682, 6.8510681 ] } },
{ "type": "Feature", "properties": { "osm_id": "11842911170", "code": 2501, "fclass": "supermarket", "name": null }, "geometry": { "type": "Point", "coordinates": [ 79.8624579, 6.8508443 ] } },
{ "type": "Feature", "properties": { "osm_id": "11842871786", "code": 2501, "fclass": "supermarket", "name": null }, "geometry": { "type": "Point", "coordinates": [ 79.8627274, 6.85108 ] } },
{ "type": "Feature", "properties": { "osm_id": "11842860293", "code": 2501, "fclass": "supermarket", "name": null }, "geometry": { "type": "Point", "coordinates": [ 79.8630749, 6.851907 ] } },
{ "type": "Feature", "properties": { "osm_id": "3542053449", "code": 2501, "fclass": "supermarket", "name": "Sri Lak Supermarket" }, "geometry": { "type": "Point", "coordinates": [ 79.9289065, 6.9052163 ] } },
{ "type": "Feature", "properties": { "osm_id": "5317654428", "code": 2501, "fclass": "supermarket", "name": null }, "geometry": { "type": "Point", "coordinates": [ 79.8629655, 6.8333578 ] } },
{ "type": "Feature", "properties": { "osm_id": "3401467563", "code": 2501, "fclass": "supermarket", "name": "Cargills Food City" }, "geometry": { "type": "Point", "coordinates": [ 79.8624595, 6.8508182 ] } },
{ "type": "Feature", "properties": { "osm_id": "5396117953", "code": 2501, "fclass": "supermarket", "name": "Cargills Food City" }, "geometry": { "type": "Point", "coordinates": [ 79.9298929, 6.9071545 ] } },
{ "type": "Feature", "properties": { "osm_id": "974335171", "code": 2501, "fclass": "supermarket", "name": "Laugfs Super" }, "geometry": { "type": "Point", "coordinates": [ 79.936189, 6.9082875 ] } },
{ "type": "Feature", "properties": { "osm_id": "4059270371", "code": 2501, "fclass": "supermarket", "name": "Suasa Food city" }, "geometry": { "type": "Point", "coordinates": [ 79.9311409, 6.9361198 ] } },
{ "type": "Feature", "properties": { "osm_id": "4953821180", "code": 2501, "fclass": "supermarket", "name": "Arpico Super Center" }, "geometry": { "type": "Point", "coordinates": [ 79.9337061, 6.926768 ] } },
{ "type": "Feature", "properties": { "osm_id": "4962943102", "code": 2501, "fclass": "supermarket", "name": "Sathosa" }, "geometry": { "type": "Point", "coordinates": [ 79.9313248, 6.9254249 ] } },
{ "type": "Feature", "properties": { "osm_id": "8422399017", "code": 2501, "fclass": "supermarket", "name": "Keells" }, "geometry": { "type": "Point", "coordinates": [ 79.9302165, 6.9525106 ] } },
{ "type": "Feature", "properties": { "osm_id": "7903766171", "code": 2501, "fclass": "supermarket", "name": "Cargills Food City" }, "geometry": { "type": "Point", "coordinates": [ 79.9401539, 6.9226097 ] } },
{ "type": "Feature", "properties": { "osm_id": "1815544590", "code": 2501, "fclass": "supermarket", "name": "Amila Stores" }, "geometry": { "type": "Point", "coordinates": [ 79.9401719, 6.9263539 ] } },
{ "type": "Feature", "properties": { "osm_id": "3753934186", "code": 2501, "fclass": "supermarket", "name": "Cargills Food City" }, "geometry": { "type": "Point", "coordinates": [ 79.874533, 6.9713795 ] } },
{ "type": "Feature", "properties": { "osm_id": "13732802512", "code": 2501, "fclass": "supermarket", "name": "New Ramyasiri Stores" }, "geometry": { "type": "Point", "coordinates": [ 79.9287572, 6.9800718 ] } },
{ "type": "Feature", "properties": { "osm_id": "4262948389", "code": 2501, "fclass": "supermarket", "name": "Salinda Supermarket" }, "geometry": { "type": "Point", "coordinates": [ 79.9378088, 6.989748 ] } },
{ "type": "Feature", "properties": { "osm_id": "844679666", "code": 2501, "fclass": "supermarket", "name": "Arpico Kiribathgoda" }, "geometry": { "type": "Point", "coordinates": [ 79.925369, 6.9760121 ] } },
{ "type": "Feature", "properties": { "osm_id": "844674884", "code": 2501, "fclass": "supermarket", "name": "Keels Super Kiribathgoda" }, "geometry": { "type": "Point", "coordinates": [ 79.9292106, 6.9772195 ] } },
{ "type": "Feature", "properties": { "osm_id": "844674877", "code": 2501, "fclass": "supermarket", "name": "Cargills Food City" }, "geometry": { "type": "Point", "coordinates": [ 79.9312432, 6.9821638 ] } },
{ "type": "Feature", "properties": { "osm_id": "5377949108", "code": 2501, "fclass": "supermarket", "name": "Cargills Food City" }, "geometry": { "type": "Point", "coordinates": [ 79.8744354, 6.9941658 ] } },
{ "type": "Feature", "properties": { "osm_id": "11381176152", "code": 2501, "fclass": "supermarket", "name": "CO OP City" }, "geometry": { "type": "Point", "coordinates": [ 79.909411, 7.0020865 ] } },
{ "type": "Feature", "properties": { "osm_id": "5083875761", "code": 2501, "fclass": "supermarket", "name": "Cargills Food City" }, "geometry": { "type": "Point", "coordinates": [ 79.9012946, 6.9841806 ] } },
{ "type": "Feature", "properties": { "osm_id": "3722646174", "code": 2501, "fclass": "supermarket", "name": "Arpico Super Center" }, "geometry": { "type": "Point", "coordinates": [ 79.8924994, 6.9887293 ] } },
{ "type": "Feature", "properties": { "osm_id": "2028165024", "code": 2501, "fclass": "supermarket", "name": "Cargills Kadawatha" }, "geometry": { "type": "Point", "coordinates": [ 79.9482984, 7.0003913 ] } },
{ "type": "Feature", "properties": { "osm_id": "4943914949", "code": 2501, "fclass": "supermarket", "name": "Keels Super" }, "geometry": { "type": "Point", "coordinates": [ 79.9308758, 6.9823598 ] } },
{ "type": "Feature", "properties": { "osm_id": "4916784433", "code": 2501, "fclass": "supermarket", "name": null }, "geometry": { "type": "Point", "coordinates": [ 79.9012249, 6.9844056 ] } },
{ "type": "Feature", "properties": { "osm_id": "2902121085", "code": 2501, "fclass": "supermarket", "name": "Arpico Super Center" }, "geometry": { "type": "Point", "coordinates": [ 79.9497045, 7.0014343 ] } },
{ "type": "Feature", "properties": { "osm_id": "4948961921", "code": 2501, "fclass": "supermarket", "name": null }, "geometry": { "type": "Point", "coordinates": [ 79.9144594, 6.9942253 ] } },
{ "type": "Feature", "properties": { "osm_id": "5223412522", "code": 2501, "fclass": "supermarket", "name": null }, "geometry": { "type": "Point", "coordinates": [ 79.9466555, 6.9767332 ] } },
{ "type": "Feature", "properties": { "osm_id": "4956760854", "code": 2501, "fclass": "supermarket", "name": "Cargills Food City" }, "geometry": { "type": "Point", "coordinates": [ 79.9480797, 7.0002221 ] } },
{ "type": "Feature", "properties": { "osm_id": "5255889391", "code": 2501, "fclass": "supermarket", "name": "Sathosa" }, "geometry": { "type": "Point", "coordinates": [ 79.9023466, 6.9850913 ] } },
{ "type": "Feature", "properties": { "osm_id": "621201130", "code": 2501, "fclass": "supermarket", "name": "ODEL" }, "geometry": { "type": "Point", "coordinates": [ 79.8908158, 6.9882741 ] } },
{ "type": "Feature", "properties": { "osm_id": "1908112579", "code": 2501, "fclass": "supermarket", "name": "Cargills Food City" }, "geometry": { "type": "Point", "coordinates": [ 79.8885798, 6.9851783 ] } },
{ "type": "Feature", "properties": { "osm_id": "1909499841", "code": 2501, "fclass": "supermarket", "name": "Arpico Daily" }, "geometry": { "type": "Point", "coordinates": [ 79.8744821, 6.9938307 ] } },
{ "type": "Feature", "properties": { "osm_id": "5755169340", "code": 2501, "fclass": "supermarket", "name": "Keells Super" }, "geometry": { "type": "Point", "coordinates": [ 79.8860353, 6.9967957 ] } },
{ "type": "Feature", "properties": { "osm_id": "5147972878", "code": 2501, "fclass": "supermarket", "name": "Laugfs Supermarket" }, "geometry": { "type": "Point", "coordinates": [ 79.9152924, 6.9953732 ] } },
{ "type": "Feature", "properties": { "osm_id": "5147972879", "code": 2501, "fclass": "supermarket", "name": "Cargills Food City" }, "geometry": { "type": "Point", "coordinates": [ 79.9151686, 6.9952503 ] } },
{ "type": "Feature", "properties": { "osm_id": "5147972956", "code": 2501, "fclass": "supermarket", "name": "Keels Super" }, "geometry": { "type": "Point", "coordinates": [ 79.9149043, 6.9949449 ] } },
{ "type": "Feature", "properties": { "osm_id": "12023879293", "code": 2501, "fclass": "supermarket", "name": null }, "geometry": { "type": "Point", "coordinates": [ 79.8919344, 6.971746 ] } },
{ "type": "Feature", "properties": { "osm_id": "12100585600", "code": 2501, "fclass": "supermarket", "name": "Arpico Superstore" }, "geometry": { "type": "Point", "coordinates": [ 79.8889872, 6.977953 ] } },
{ "type": "Feature", "properties": { "osm_id": "5981239985", "code": 2501, "fclass": "supermarket", "name": "Cargills Food City" }, "geometry": { "type": "Point", "coordinates": [ 79.9068139, 6.9670399 ] } },
{ "type": "Feature", "properties": { "osm_id": "5981218685", "code": 2501, "fclass": "supermarket", "name": null }, "geometry": { "type": "Point", "coordinates": [ 79.949625, 7.0024346 ] } },
{ "type": "Feature", "properties": { "osm_id": "5981233287", "code": 2501, "fclass": "supermarket", "name": "SPAR" }, "geometry": { "type": "Point", "coordinates": [ 79.9191137, 6.973577 ] } },
{ "type": "Feature", "properties": { "osm_id": "5981233288", "code": 2501, "fclass": "supermarket", "name": "Keels" }, "geometry": { "type": "Point", "coordinates": [ 79.9115441, 6.9690669 ] } },
{ "type": "Feature", "properties": { "osm_id": "4197171453", "code": 2501, "fclass": "supermarket", "name": "Cargills Food City" }, "geometry": { "type": "Point", "coordinates": [ 79.9175629, 6.9731476 ] } },
{ "type": "Feature", "properties": { "osm_id": "4197179132", "code": 2501, "fclass": "supermarket", "name": "Sathosa" }, "geometry": { "type": "Point", "coordinates": [ 79.9119292, 6.9689531 ] } },
{ "type": "Feature", "properties": { "osm_id": "9740481352", "code": 2501, "fclass": "supermarket", "name": "Arpico" }, "geometry": { "type": "Point", "coordinates": [ 79.8885399, 6.9774862 ] } },
{ "type": "Feature", "properties": { "osm_id": "12309627001", "code": 2501, "fclass": "supermarket", "name": "Spar" }, "geometry": { "type": "Point", "coordinates": [ 79.889113, 6.9842239 ] } },
{ "type": "Feature", "properties": { "osm_id": "3751139491", "code": 2501, "fclass": "supermarket", "name": null }, "geometry": { "type": "Point", "coordinates": [ 79.8848782, 6.7850917 ] } },
{ "type": "Feature", "properties": { "osm_id": "1252511580", "code": 2501, "fclass": "supermarket", "name": "K Zone" }, "geometry": { "type": "Point", "coordinates": [ 79.88782, 6.7959345 ] } },
{ "type": "Feature", "properties": { "osm_id": "9130911779", "code": 2501, "fclass": "supermarket", "name": "Sathosa" }, "geometry": { "type": "Point", "coordinates": [ 79.9295859, 6.7975645 ] } },
{ "type": "Feature", "properties": { "osm_id": "9128508837", "code": 2501, "fclass": "supermarket", "name": "LAUGFS Super" }, "geometry": { "type": "Point", "coordinates": [ 79.9361989, 6.7951941 ] } },
{ "type": "Feature", "properties": { "osm_id": "9130907245", "code": 2501, "fclass": "supermarket", "name": "Keels" }, "geometry": { "type": "Point", "coordinates": [ 79.9293351, 6.7975432 ] } },
{ "type": "Feature", "properties": { "osm_id": "6192557892", "code": 2501, "fclass": "supermarket", "name": "Cargills Food City" }, "geometry": { "type": "Point", "coordinates": [ 79.8865096, 6.7911184 ] } },
{ "type": "Feature", "properties": { "osm_id": "6192568695", "code": 2501, "fclass": "supermarket", "name": null }, "geometry": { "type": "Point", "coordinates": [ 79.8891203, 6.7857503 ] } },
{ "type": "Feature", "properties": { "osm_id": "9132963572", "code": 2501, "fclass": "supermarket", "name": "Keels Super" }, "geometry": { "type": "Point", "coordinates": [ 79.9151864, 6.7983172 ] } },
{ "type": "Feature", "properties": { "osm_id": "9132959756", "code": 2501, "fclass": "supermarket", "name": "Cargills Food City" }, "geometry": { "type": "Point", "coordinates": [ 79.9187644, 6.7996975 ] } },
{ "type": "Feature", "properties": { "osm_id": "3524790434", "code": 2501, "fclass": "supermarket", "name": "Cargills Food City" }, "geometry": { "type": "Point", "coordinates": [ 79.9098898, 6.7971934 ] } },
{ "type": "Feature", "properties": { "osm_id": "3524801551", "code": 2501, "fclass": "supermarket", "name": "Sathosa" }, "geometry": { "type": "Point", "coordinates": [ 79.9191074, 6.7992922 ] } },
{ "type": "Feature", "properties": { "osm_id": "6615789494", "code": 2501, "fclass": "supermarket", "name": "Ze Mart" }, "geometry": { "type": "Point", "coordinates": [ 79.9222768, 6.8022409 ] } },
{ "type": "Feature", "properties": { "osm_id": "1895968911", "code": 2501, "fclass": "supermarket", "name": "Arpico Super Centre" }, "geometry": { "type": "Point", "coordinates": [ 79.9297555, 6.7984848 ] } },
{ "type": "Feature", "properties": { "osm_id": "652394768", "code": 2501, "fclass": "supermarket", "name": "Cargills Big City" }, "geometry": { "type": "Point", "coordinates": [ 79.8883716, 6.802066 ] } },
{ "type": "Feature", "properties": { "osm_id": "1278003885", "code": 2501, "fclass": "supermarket", "name": null }, "geometry": { "type": "Point", "coordinates": [ 79.8820238, 6.7775372 ] } },
{ "type": "Feature", "properties": { "osm_id": "6376148877", "code": 2501, "fclass": "supermarket", "name": "Cargills Food City" }, "geometry": { "type": "Point", "coordinates": [ 79.9566395, 6.9016582 ] } },
{ "type": "Feature", "properties": { "osm_id": "5643841521", "code": 2501, "fclass": "supermarket", "name": "Sahan Agro Organic Supermarket" }, "geometry": { "type": "Point", "coordinates": [ 79.9841276, 6.8802823 ] } },
{ "type": "Feature", "properties": { "osm_id": "1843534079", "code": 2501, "fclass": "supermarket", "name": "Kaduwela" }, "geometry": { "type": "Point", "coordinates": [ 79.9841147, 6.9346877 ] } },
{ "type": "Feature", "properties": { "osm_id": "4253797942", "code": 2501, "fclass": "supermarket", "name": "Cargills" }, "geometry": { "type": "Point", "coordinates": [ 79.9813957, 6.9367953 ] } },
{ "type": "Feature", "properties": { "osm_id": "8244359467", "code": 2501, "fclass": "supermarket", "name": "Sudu Araliya Super City" }, "geometry": { "type": "Point", "coordinates": [ 80.0079108, 6.9316887 ] } },
{ "type": "Feature", "properties": { "osm_id": "4253797939", "code": 2501, "fclass": "supermarket", "name": "Arpico" }, "geometry": { "type": "Point", "coordinates": [ 79.9799444, 6.9369712 ] } },
{ "type": "Feature", "properties": { "osm_id": "3254726367", "code": 2501, "fclass": "supermarket", "name": "Cargills" }, "geometry": { "type": "Point", "coordinates": [ 79.964586, 6.8911052 ] } },
{ "type": "Feature", "properties": { "osm_id": "5055451128", "code": 2501, "fclass": "supermarket", "name": "Keels" }, "geometry": { "type": "Point", "coordinates": [ 79.9845041, 6.8807181 ] } },
{ "type": "Feature", "properties": { "osm_id": "970502284", "code": 2501, "fclass": "supermarket", "name": "Keels Supper Kaduwela" }, "geometry": { "type": "Point", "coordinates": [ 79.9822576, 6.9339887 ] } },
{ "type": "Feature", "properties": { "osm_id": "5019114545", "code": 2501, "fclass": "supermarket", "name": "Sathosa" }, "geometry": { "type": "Point", "coordinates": [ 80.0172914, 6.9248378 ] } },
{ "type": "Feature", "properties": { "osm_id": "13483117037", "code": 2501, "fclass": "supermarket", "name": "Arpico Super Daily - Athurugiriya" }, "geometry": { "type": "Point", "coordinates": [ 79.9885963, 6.8783488 ] } },
{ "type": "Feature", "properties": { "osm_id": "3133191018", "code": 2501, "fclass": "supermarket", "name": "Cargills Supermarket Thalahena" }, "geometry": { "type": "Point", "coordinates": [ 79.9457843, 6.9072303 ] } },
{ "type": "Feature", "properties": { "osm_id": "4934862222", "code": 2501, "fclass": "supermarket", "name": "Sathosa" }, "geometry": { "type": "Point", "coordinates": [ 79.9549433, 6.90267 ] } },
{ "type": "Feature", "properties": { "osm_id": "693050104", "code": 2501, "fclass": "supermarket", "name": "Cargills Athurugiriya" }, "geometry": { "type": "Point", "coordinates": [ 79.9867452, 6.879201 ] } },
{ "type": "Feature", "properties": { "osm_id": "2400310859", "code": 2501, "fclass": "supermarket", "name": "Laugfs" }, "geometry": { "type": "Point", "coordinates": [ 79.9596287, 6.880262 ] } },
{ "type": "Feature", "properties": { "osm_id": "3567501873", "code": 2501, "fclass": "supermarket", "name": "Keells Super" }, "geometry": { "type": "Point", "coordinates": [ 79.9636296, 6.8922874 ] } },
{ "type": "Feature", "properties": { "osm_id": "7189262559", "code": 2501, "fclass": "supermarket", "name": "Laugfs Supermarket" }, "geometry": { "type": "Point", "coordinates": [ 79.9870238, 6.9405737 ] } },
{ "type": "Feature", "properties": { "osm_id": "5166841221", "code": 2501, "fclass": "supermarket", "name": null }, "geometry": { "type": "Point", "coordinates": [ 79.9721284, 6.9146204 ] } },
{ "type": "Feature", "properties": { "osm_id": "5165458326", "code": 2501, "fclass": "supermarket", "name": null }, "geometry": { "type": "Point", "coordinates": [ 79.9747912, 6.9213212 ] } },
{ "type": "Feature", "properties": { "osm_id": "2516359371", "code": 2501, "fclass": "supermarket", "name": "Cargills" }, "geometry": { "type": "Point", "coordinates": [ 79.9720604, 6.9146456 ] } },
{ "type": "Feature", "properties": { "osm_id": "6594676559", "code": 2501, "fclass": "supermarket", "name": "Cargills Food City" }, "geometry": { "type": "Point", "coordinates": [ 79.9597669, 6.8794816 ] } },
{ "type": "Feature", "properties": { "osm_id": "1902017545", "code": 2501, "fclass": "supermarket", "name": "Sathosa" }, "geometry": { "type": "Point", "coordinates": [ 79.8981733, 7.0139661 ] } },
{ "type": "Feature", "properties": { "osm_id": "1909618631", "code": 2501, "fclass": "supermarket", "name": "Cargills" }, "geometry": { "type": "Point", "coordinates": [ 79.8978066, 7.0142604 ] } },
{ "type": "Feature", "properties": { "osm_id": "13667067301", "code": 2501, "fclass": "supermarket", "name": "Lanka Sathosa" }, "geometry": { "type": "Point", "coordinates": [ 79.9435658, 6.7859585 ] } },
{ "type": "Feature", "properties": { "osm_id": "1794054437", "code": 2501, "fclass": "supermarket", "name": "Cargills Food City" }, "geometry": { "type": "Point", "coordinates": [ 79.9395625, 6.7963905 ] } },
{ "type": "Feature", "properties": { "osm_id": "9128481289", "code": 2501, "fclass": "supermarket", "name": "Keels" }, "geometry": { "type": "Point", "coordinates": [ 79.9469626, 6.7932285 ] } },
{ "type": "Feature", "properties": { "osm_id": "4954409524", "code": 2501, "fclass": "supermarket", "name": null }, "geometry": { "type": "Point", "coordinates": [ 79.9416339, 6.7918398 ] } },
{ "type": "Feature", "properties": { "osm_id": "6615733832", "code": 2501, "fclass": "supermarket", "name": "Cargills Food City" }, "geometry": { "type": "Point", "coordinates": [ 79.9002682, 6.7499765 ] } },
{ "type": "Feature", "properties": { "osm_id": "1909684724", "code": 2501, "fclass": "supermarket", "name": "Keells" }, "geometry": { "type": "Point", "coordinates": [ 79.899271, 7.0216504 ] } },
{ "type": "Feature", "properties": { "osm_id": "4631098383", "code": 2501, "fclass": "supermarket", "name": "Keels Super" }, "geometry": { "type": "Point", "coordinates": [ 79.9874951, 6.8391949 ] } },
{ "type": "Feature", "properties": { "osm_id": "904968176", "code": 2501, "fclass": "supermarket", "name": "Cargills" }, "geometry": { "type": "Point", "coordinates": [ 80.0049576, 6.8413495 ] } },
{ "type": "Feature", "properties": { "osm_id": "904968165", "code": 2501, "fclass": "supermarket", "name": "CWE" }, "geometry": { "type": "Point", "coordinates": [ 80.0036857, 6.8426946 ] } },
{ "type": "Feature", "properties": { "osm_id": "13475232279", "code": 2501, "fclass": "supermarket", "name": "Cargills Express Pitipana" }, "geometry": { "type": "Point", "coordinates": [ 80.0137593, 6.8445319 ] } },
{ "type": "Feature", "properties": { "osm_id": "904968189", "code": 2501, "fclass": "supermarket", "name": "Co-op Super" }, "geometry": { "type": "Point", "coordinates": [ 80.000959, 6.8409718 ] } },
{ "type": "Feature", "properties": { "osm_id": "4082983189", "code": 2501, "fclass": "supermarket", "name": "Panagoda Mini Coop City" }, "geometry": { "type": "Point", "coordinates": [ 80.023515, 6.8652794 ] } },
{ "type": "Feature", "properties": { "osm_id": "2562560006", "code": 2501, "fclass": "supermarket", "name": "Lanka Sathosa" }, "geometry": { "type": "Point", "coordinates": [ 80.0265187, 6.8515196 ] } },
{ "type": "Feature", "properties": { "osm_id": "2688222285", "code": 2501, "fclass": "supermarket", "name": "Public Market" }, "geometry": { "type": "Point", "coordinates": [ 80.0024053, 6.8414211 ] } },
{ "type": "Feature", "properties": { "osm_id": "10936355625", "code": 2501, "fclass": "supermarket", "name": "Market Place, Pitipana." }, "geometry": { "type": "Point", "coordinates": [ 80.0241488, 6.8356972 ] } },
{ "type": "Feature", "properties": { "osm_id": "10936355626", "code": 2501, "fclass": "supermarket", "name": "Sudu Araliya, Food City, Pitipana," }, "geometry": { "type": "Point", "coordinates": [ 80.0237584, 6.836777 ] } },
{ "type": "Feature", "properties": { "osm_id": "619742376", "code": 2501, "fclass": "supermarket", "name": "Sathosa Athurugiriya" }, "geometry": { "type": "Point", "coordinates": [ 79.9890108, 6.8775789 ] } },
{ "type": "Feature", "properties": { "osm_id": "13395654471", "code": 2501, "fclass": "supermarket", "name": "Cargills Food City" }, "geometry": { "type": "Point", "coordinates": [ 79.9918957, 6.8765891 ] } },
{ "type": "Feature", "properties": { "osm_id": "13392194700", "code": 2501, "fclass": "supermarket", "name": "Keells Super" }, "geometry": { "type": "Point", "coordinates": [ 79.9950943, 6.8731508 ] } },
{ "type": "Feature", "properties": { "osm_id": "1144976014", "code": 2501, "fclass": "supermarket", "name": "Cargills Food City" }, "geometry": { "type": "Point", "coordinates": [ 79.9593908, 6.8669179 ] } },
{ "type": "Feature", "properties": { "osm_id": "5406372921", "code": 2501, "fclass": "supermarket", "name": null }, "geometry": { "type": "Point", "coordinates": [ 79.989569, 6.877695 ] } },
{ "type": "Feature", "properties": { "osm_id": "4838548465", "code": 2501, "fclass": "supermarket", "name": "Arpico Super" }, "geometry": { "type": "Point", "coordinates": [ 79.9595413, 6.8664877 ] } },
{ "type": "Feature", "properties": { "osm_id": "4838549291", "code": 2501, "fclass": "supermarket", "name": "Sathosa" }, "geometry": { "type": "Point", "coordinates": [ 79.959271, 6.8660919 ] } },
{ "type": "Feature", "properties": { "osm_id": "6762836186", "code": 2501, "fclass": "supermarket", "name": "Keells" }, "geometry": { "type": "Point", "coordinates": [ 79.9359475, 7.0209105 ] } },
{ "type": "Feature", "properties": { "osm_id": "4197136637", "code": 2501, "fclass": "supermarket", "name": "Cargills" }, "geometry": { "type": "Point", "coordinates": [ 79.9561294, 7.0031894 ] } },
{ "type": "Feature", "properties": { "osm_id": "1370719528", "code": 2501, "fclass": "supermarket", "name": "Cargills Food City" }, "geometry": { "type": "Point", "coordinates": [ 79.9235456, 7.0275502 ] } },
{ "type": "Feature", "properties": { "osm_id": "4487927723", "code": 2501, "fclass": "supermarket", "name": "Sathosa" }, "geometry": { "type": "Point", "coordinates": [ 79.9242479, 7.0277898 ] } },
{ "type": "Feature", "properties": { "osm_id": "4544107437", "code": 2501, "fclass": "supermarket", "name": "Phoenix Showroom" }, "geometry": { "type": "Point", "coordinates": [ 79.8983067, 7.0270413 ] } },
{ "type": "Feature", "properties": { "osm_id": "4439986235", "code": 2501, "fclass": "supermarket", "name": "Arpico Super Center" }, "geometry": { "type": "Point", "coordinates": [ 79.9251104, 7.0273657 ] } },
{ "type": "Feature", "properties": { "osm_id": "5239128487", "code": 2501, "fclass": "supermarket", "name": "Cargills Food City" }, "geometry": { "type": "Point", "coordinates": [ 79.9709692, 7.0175693 ] } },
{ "type": "Feature", "properties": { "osm_id": "1529255474", "code": 2501, "fclass": "supermarket", "name": null }, "geometry": { "type": "Point", "coordinates": [ 79.9229836, 7.0279956 ] } },
{ "type": "Feature", "properties": { "osm_id": "12100573151", "code": 2501, "fclass": "supermarket", "name": "Cargills Food City" }, "geometry": { "type": "Point", "coordinates": [ 79.9235432, 7.0276351 ] } },
{ "type": "Feature", "properties": { "osm_id": "12100573141", "code": 2501, "fclass": "supermarket", "name": "Cargills Food City Express" }, "geometry": { "type": "Point", "coordinates": [ 79.9085229, 7.0243761 ] } },
{ "type": "Feature", "properties": { "osm_id": "12100573142", "code": 2501, "fclass": "supermarket", "name": "Keells" }, "geometry": { "type": "Point", "coordinates": [ 79.9176643, 7.0271473 ] } },
{ "type": "Feature", "properties": { "osm_id": "1370719672", "code": 2501, "fclass": "supermarket", "name": "Keels Super Kandana" }, "geometry": { "type": "Point", "coordinates": [ 79.8980689, 7.0407808 ] } },
{ "type": "Feature", "properties": { "osm_id": "4483802429", "code": 2501, "fclass": "supermarket", "name": "Arpico Daily" }, "geometry": { "type": "Point", "coordinates": [ 79.8963887, 7.0511986 ] } },
{ "type": "Feature", "properties": { "osm_id": "4423078313", "code": 2501, "fclass": "supermarket", "name": "Cargills" }, "geometry": { "type": "Point", "coordinates": [ 79.8964432, 7.0491065 ] } },
{ "type": "Feature", "properties": { "osm_id": "4443873977", "code": 2501, "fclass": "supermarket", "name": "Cargills" }, "geometry": { "type": "Point", "coordinates": [ 79.8994654, 7.0481751 ] } },
{ "type": "Feature", "properties": { "osm_id": "1515048362", "code": 2501, "fclass": "supermarket", "name": "Cargills Kandana" }, "geometry": { "type": "Point", "coordinates": [ 79.8963149, 7.0495088 ] } },
{ "type": "Feature", "properties": { "osm_id": "2212555591", "code": 2501, "fclass": "supermarket", "name": "Kandana Super Market" }, "geometry": { "type": "Point", "coordinates": [ 79.8962723, 7.0484915 ] } },
{ "type": "Feature", "properties": { "osm_id": "1278095661", "code": 2501, "fclass": "supermarket", "name": "Cargills Jaela 2" }, "geometry": { "type": "Point", "coordinates": [ 79.8927389, 7.0737944 ] } },
{ "type": "Feature", "properties": { "osm_id": "4291151642", "code": 2501, "fclass": "supermarket", "name": "Keels Super" }, "geometry": { "type": "Point", "coordinates": [ 79.895237, 7.0606788 ] } },
{ "type": "Feature", "properties": { "osm_id": "3722712092", "code": 2501, "fclass": "supermarket", "name": "Cargills food city" }, "geometry": { "type": "Point", "coordinates": [ 80.0129752, 6.9866672 ] } },
{ "type": "Feature", "properties": { "osm_id": "13551402133", "code": 2501, "fclass": "supermarket", "name": null }, "geometry": { "type": "Point", "coordinates": [ 80.0297641, 6.9773024 ] } }
]
}
